1 11416U 79057A   81135.01133441  .00001360  00000-0  60650-3 0  2315
2 11416  98.6726 167.4627 0013194  90.2870 270.0548 14.23468894 97742
1 11416U 79057A   81137.54177893  .00001345  00000-0  59946-3 0  2324
2 11416  98.6718 169.9607 0013256  84.9946 275.3737 14.23479004 98105
1 11416U 79057A   81142.60263160  .00000952  00000-0  42649-3 0  2336
2 11416  98.6716 174.9501 0013153  71.9638 288.2856 14.23488928 98821
1 11416U 79057A   81144.28958610  .00000639  00000-0  28887-3 0  2344
2 11416  98.6716 176.6132 0013138  67.6466 292.6072 14.23489919 99061
1 11416U 79057A   81147.45257896  .00001113  00000-0  49684-3 0  2351
2 11416  98.6712 179.7277 0013293  56.4796 303.6749 14.23501132 99511
1 11416U 79057A   81154.83296522 -.00000104  00000-0 -41843-4 0  2362
2 11416  98.6689 187.0073 0013275  37.4685 322.7416 14.23504565100560
1 11416U 79057A   81162.56471454  .00003487  00000-0  15403-2 0  2388
2 11416  98.6713 194.6297 0012376  18.9781 341.1829 14.23510983101668
1 11416U 79057A   81165.02480919  .00000375  00000-0  17277-3 0  2406
2 11416  98.6689 197.0538 0012167  11.0093 349.1361 14.23514167102010
1 11416U 79057A   81166.28999944  .00000396  00000-0  18203-3 0  2412
2 11416  98.6685 198.3007 0012167   6.9776 353.1601 14.23515366102195
1 11416U 79057A   81168.11749289  .00000532  00000-0  24160-3 0  2423
2 11416  98.6686 200.1017 0012125   2.0285 358.0978 14.23518084102455
1 11416U 79057A   81169.38268287  .00000373  00000-0  17186-3 0  2431
2 11416  98.6701 201.3466 0012343 358.6448   1.4631 14.23517361102639
1 11416U 79057A   81170.01527546  .00000173  00000-0  80237-4 0  2446
2 11416  98.6695 201.9699 0012302 356.8519   3.1667 14.23513569102723
1 11416U 79057A   81170.43700004  .00000366  00000-0  16880-3 0  2451
2 11416  98.6699 202.3862 0012369 355.4791   4.5860 14.23517962102781
1 11416U 79057A   81172.75651936  .00000690  00000-0  31123-3 0  2465
2 11416  98.6685 204.6742 0011876 348.5007  11.6619 14.23523535103115
1 11416U 79057A   81175.98974934  .00000435  00000-0  19877-3 0  2479
2 11416  98.6676 207.8611 0011563 339.0590  21.0116 14.23525394103572
1 11416U          81192.15585872 0.00000291  00000+0  03575-4 0  2487
2 11416  98.6678 223.7951 0010933 288.3230  71.6717 14.23538780105871
1 11416U 79057A   81192.15585872  .00000291  00000-0  03575-4 0  2486
2 11416  98.6678 223.7951 0010933 288.3230  71.6717 14.23538780105871
1 11416U          81199.88743882 0.00000242  00000+0  01400-4 0  2493
2 11416  98.6658 231.4130 0010760 263.2496  96.7577 14.23545265106978
1 11416U 79057A   81199.88743882  .00000242  00000-0  01400-4 0  2492
2 11416  98.6658 231.4130 0010760 263.2496  96.7577 14.23545265106978
1 11416U          81203.40177612 0.00000242  00000+0  01400-4 0  2512
2 11416  98.6665 234.8775 0010923 252.6629 107.3418 14.23549271107479
1 11416U 79057A   81203.40177612  .00000242  00000-0  01400-4 0  2511
2 11416  98.6665 234.8775 0010923 252.6629 107.3418 14.23549271107479
1 11416U          81206.28352565 0.00000242  00000+0  01400-4 0  2524
2 11416  98.6665 237.7169 0011040 243.3024 116.7024 14.23552704107882
1 11416U 79057A   81206.28352565  .00000242  00000-0  01400-4 0  2523
2 11416  98.6665 237.7169 0011040 243.3024 116.7024 14.23552704107882
1 11416U          81210.36013637 0.00000242  00000+0  01400-4 0  2533
2 11416  98.6668 241.7330 0011075 230.6857 129.3343 14.23557568108463
1 11416U 79057A   81210.36013637  .00000242  00000-0  01400-4 0  2532
2 11416  98.6668 241.7330 0011075 230.6857 129.3343 14.23557568108463
1 11416U          81213.95541221 0.00000390  00000+0  07857-4 0  2543
2 11416  98.6635 245.2496 0011206 219.2527 195.5014 14.23563576108334
1 11416U 79057A   81213.95541221  .00000390  00000-0  07857-4 0  2542
2 11416  98.6635 245.2496 0011206 219.2527 195.5014 14.23563576108334
1 11416U          81230.04017080 0.00000491  00000+0  02313-4 0  2558
2 11416  98.6665 261.1242 0011748 171.7369 188.4011 14.23578835110627
1 11416U 79057A   81230.04017080  .00000491  00000-0  02313-4 0  2557
2 11416  98.6665 261.1242 0011748 171.7369 188.4011 14.23578835110627
1 11416U          81233.13271981 0.00000533  00000+0  04185-4 0  2560
2 11416  98.6668 264.1720 0011943 162.9748 197.1838 14.23583126111066
1 11416U 79057A   81233.13271981  .00000533  00000-0  04185-4 0  2569
2 11416  98.6668 264.1720 0011943 162.9748 197.1838 14.23583126111066
1 11416U          81234.53841729 0.00000964  00000+0  03066-4 0  2574
2 11416  98.6655 265.5577 0012457 158.4145 201.7565 14.23588562111269
1 11416U 79057A   81234.53841729  .00000964  00000-0  03066-4 0  2573
2 11416  98.6655 265.5577 0012457 158.4145 201.7565 14.23588562111269
1 11416U          81236.57667613 0.00000973  00000+0  03496-4 0  2586
2 11416  98.6656 267.5655 0012623 152.8061 207.3781 14.23592567111553
1 11416U 79057A   81236.57667613  .00000973  00000-0  03496-4 0  2585
2 11416  98.6656 267.5655 0012623 152.8061 207.3781 14.23592567111553
1 11416U          81240.09089669 0.00001072  00000+0  07807-4 0  2599
2 11416  98.6663 271.0290 0012735 142.8614 217.3449 14.23601341112052
1 11416U 79057A   81240.09089669  .00001072  00000-0  07807-4 0  2598
2 11416  98.6663 271.0290 0012735 142.8614 217.3449 14.23601341112052
1 11416U 79057A   81244.16736152  .00001137  00000-0  50630-3 0  2601
2 11416  98.6667 275.0471 0012715 131.7055 228.5221 14.23612137112636
1 11416U 79057A   81246.13529510  .00001213  00000-0  53988-3 0  2613
2 11416  98.6664 276.9854 0012838 126.1372 234.1000 14.23618547112914
1 11416U 79057A   81250.63340960  .00001239  00000-0  55101-3 0  2621
2 11416  98.6658 281.4154 0013008 113.6434 246.6111 14.23630418113554
1 11416U 79057A   81257.59135730  .00001259  00000-0  56011-3 0  2634
2 11416  98.6654 288.2692 0013068  94.6489 265.6183 14.23648542114543
1 11416U 79057A   81262.86246321  .00001308  00000-0  58128-3 0  2646
2 11416  98.6653 293.4616 0013065  80.4752 279.7904 14.23663464115299
1 11416U 79057A   81268.13351379  .00001335  00000-0  59262-3 0  2653
2 11416  98.6651 298.6539 0013079  66.3848 293.8702 14.23678304116048
1 11416U 79057A   81277.12931900  .00001332  00000-0  59107-3 0  2662
2 11416  98.6641 307.5141 0012949  42.0711 318.1463 14.23702473117323
1 11416U 79057A   81283.03272327  .00001383  00000-0  61354-3 0  2674
2 11416  98.6634 313.3276 0012761  26.3959 333.7872 14.23719956118164
1 11416U 79057A   81285.14106521  .00001389  00000-0  61630-3 0  2684
2 11416  98.6635 315.4047 0012691  20.2052 339.9636 14.23726024118466
1 11416U 79057A   81289.35771572  .00001458  00000-0  64645-3 0  2692
2 11416  98.6625 319.5564 0012454   8.7857 351.3541 14.23739777119064
1 11416U 79057A   81295.82315786  .00001609  00000-0  71215-3 0  2714
2 11416  98.6614 325.9207 0012196 350.6949   9.4021 14.23763867119983
1 11416U 79057A   81297.58004716  .00001674  00000-0  74006-3 0  2721
2 11416  98.6616 327.6518 0011976 345.8728  14.2117 14.23771492120238
1 11416U 79057A   81299.12610609  .00001717  00000-0  75923-3 0  2735
2 11416  98.6618 329.1758 0012057 340.5229  19.5530 14.23777900120453
1 11416U          81310.58084191 0.00001412  00000+0  02519-4 0  2746
2 11416  98.6566 340.4501 0011215 306.1344  53.8796 14.23813057122088
1 11416U 79057A   81310.58084191  .00001412  00000-0  02519-4 0  2745
2 11416  98.6566 340.4501 0011215 306.1344  53.8796 14.23813057122088
1 11416U          81313.53232119 0.00001468  00000+0  04995-4 0  2751
2 11416  98.6567 343.3559 0010979 296.9538  63.0525 14.23823166122503
1 11416U 79057A   81313.53232119  .00001468  00000-0  04995-4 0  2750
2 11416  98.6567 343.3559 0010979 296.9538  63.0525 14.23823166122503
1 11416U          81315.85132333 0.00001669  00000+0  03750-4 0  2767
2 11416  98.6568 345.6392 0010704 290.0345  69.9689 14.23833466122837
1 11416U 79057A   81315.85132333  .00001669  00000-0  03750-4 0  2766
2 11416  98.6568 345.6392 0010704 290.0345  69.9689 14.23833466122837
1 11416U          81317.25676637 0.00002029  00000+0  09441-4 0  2778
2 11416  98.6577 347.0242 0011013 285.7472  74.2501 14.23843002123035
1 11416U 79057A   81317.25676637  .00002029  00000-0  09441-4 0  2777
2 11416  98.6577 347.0242 0011013 285.7472  74.2501 14.23843002123035
1 11416U          81318.87301715 0.00002125  00000+0  03623-4 0  2783
2 11416  98.6576 348.6146 0010873 280.8666  79.1290 14.23851585123267
1 11416U 79057A   81318.87301715  .00002125  00000-0  03623-4 0  2782
2 11416  98.6576 348.6146 0010873 280.8666  79.1290 14.23851585123267
1 11416U          81323.65147640 0.00002122  00000+0  03450-4 0  2808
2 11416  98.6533 353.3147 0010926 264.7074  95.2922 14.23866844123947
1 11416U 79057A   81323.65147640  .00002122  00000-0  03450-4 0  2807
2 11416  98.6533 353.3147 0010926 264.7074  95.2922 14.23866844123947
1 11416U          81328.14880384 0.00002123  00000+0  03450-4 0  2818
2 11416  98.6529 357.7395 0010807 250.4920 109.4946 14.23883247124586
1 11416U 79057A   81328.14880384  .00002123  00000-0  03450-4 0  2817
2 11416  98.6529 357.7395 0010807 250.4920 109.4946 14.23883247124586
1 11416U          81329.27313547 0.00002122  00000+0  03450-4 0  2825
2 11416  98.6527 358.8455 0010872 246.9755 113.0333 14.23886585124748
1 11416U 79057A   81329.27313547  .00002122  00000-0  03450-4 0  2824
2 11416  98.6527 358.8455 0010872 246.9755 113.0333 14.23886585124748
1 11416U          81330.11638126 0.00002123  00000+0  03450-4 0  2835
2 11416  98.6498 359.6753 0010720 243.5260 116.4660 14.23887253124867
1 11416U 79057A   81330.11638126  .00002123  00000-0  03450-4 0  2834
2 11416  98.6498 359.6753 0010720 243.5260 116.4660 14.23887253124867
1 11416U          81331.02989856 0.00002122  00000+0  03450-4 0  2845
2 11416  98.6538   0.5782 0011150 240.1231 119.8797 14.23888683124995
1 11416U 79057A   81331.02989856  .00002122  00000-0  03450-4 0  2844
2 11416  98.6538   0.5782 0011150 240.1231 119.8797 14.23888683124995
1 11416U          81332.01368559 0.00002123  00000+0  03450-4 0  2858
2 11416  98.6543   1.5454 0011049 239.0588 120.9423 14.23889828125135
